{
    "links": {
        "self": "http://www.neowsapp.com/rest/v1/neo/3838073?api_key=iIulBulltgU6a56xZRHN4H3l9WmuAYTsLGpBGhQ2"
    },
    "id": "3838073",
    "neo_reference_id": "3838073",
    "name": "(2019 BY4)",
    "designation": "2019 BY4",
    "nasa_jpl_url": "http://ssd.jpl.nasa.gov/sbdb.cgi?sstr=3838073",
    "absolute_magnitude_h": 24.1,
    "estimated_diameter": {
        "kilometers": {
            "estimated_diameter_min": 0.040230458,
            "estimated_diameter_max": 0.0899580388
        },
        "meters": {
            "estimated_diameter_min": 40.2304579834,
            "estimated_diameter_max": 89.9580388169
        },
        "miles": {
            "estimated_diameter_min": 0.0249980399,
            "estimated_diameter_max": 0.0558973165
        },
        "feet": {
            "estimated_diameter_min": 131.9896957704,
            "estimated_diameter_max": 295.1379320721
        }
    },
    "is_potentially_hazardous_asteroid": false,
    "close_approach_data": [
        {
            "close_approach_date": "2019-01-23",
            "close_approach_date_full": "2019-Jan-23 07:57",
            "epoch_date_close_approach": 1548230220000,
            "relative_velocity": {
                "kilometers_per_second": "17.7402243902",
                "kilometers_per_hour": "63864.8078046307",
                "miles_per_hour": "39683.1079383829"
            },
            "miss_distance": {
                "astronomical": "0.0233715174",
                "lunar": "9.0915202686",
                "kilometers": "3496329.221707938",
                "miles": "2172518.2373600244"
            },
            "orbiting_body": "Earth"
        }
    ],
    "orbital_data": {
        "orbit_id": "3",
        "orbit_determination_date": "2019-02-14 07:04:46",
        "first_observation_date": "2019-01-30",
        "last_observation_date": "2019-02-11",
        "data_arc_in_days": 12,
        "observations_used": 51,
        "orbit_uncertainty": "8",
        "minimum_orbit_intersection": ".0233749",
        "jupiter_tisserand_invariant": "3.275",
        "epoch_osculation": "2458517.5",
        "eccentricity": ".6837491682392707",
        "semi_major_axis": "2.246152392452962",
        "inclination": "1.555328827753444",
        "ascending_node_longitude": "241.5532938084808",
        "orbital_period": "1229.581312363453",
        "perihelion_distance": ".7103475623746015",
        "perihelion_argument": "169.6387461085833",
        "aphelion_distance": "3.781957222531323",
        "perihelion_time": "2458464.499205117728",
        "mean_anomaly": "15.51770994383652",
        "mean_motion": ".2927825889839054",
        "equinox": "J2000",
        "orbit_class": {
            "orbit_class_type": "APO",
            "orbit_class_description": "Near-Earth asteroid orbits which cross the Earth’s orbit similar to that of 1862 Apollo",
            "orbit_class_range": "a (semi-major axis) > 1.0 AU; q (perihelion) < 1.017 AU"
        }
    },
    "is_sentry_object": false
}